{
  "norad_id": 47676,
  "name": "STARLINK-2083",
  "history": [
    {
      "epoch": "2026-03-28T22:00:01.999584Z",
      "apogee_km": 380.01935476365634,
      "perigee_km": 378.6571828989654,
      "latitude_deg": 44.692713263524276,
      "longitude_deg": 79.76503515656336,
      "height_km": 383.26912645565216,
      "semi_major_axis_km": 6757.47526883131,
      "eccentricity": 0.00010079,
      "inclination_deg": 53.0476,
      "raan_deg": 188.367,
      "arg_perigee_deg": 74.8949,
      "mean_anomaly_deg": 346.4936,
      "mean_motion_rev_day": 15.62881551
    },
    {
      "epoch": "2026-03-29T04:00:01.999584Z",
      "apogee_km": 379.2344388349811,
      "perigee_km": 377.64664311285196,
      "latitude_deg": 22.85054184935299,
      "longitude_deg": -41.06867141346898,
      "height_km": 378.6848831919433,
      "semi_major_axis_km": 6756.577540973916,
      "eccentricity": 0.0001175,
      "inclination_deg": 53.048,
      "raan_deg": 187.1423,
      "arg_perigee_deg": 81.3454,
      "mean_anomaly_deg": 307.6611,
      "mean_motion_rev_day": 15.63193045
    },
    {
      "epoch": "2026-03-30T06:00:01.999296Z",
      "apogee_km": 375.7597443116101,
      "perigee_km": 374.27540093654716,
      "latitude_deg": 9.591277555861474,
      "longitude_deg": -88.55724304071404,
      "height_km": 374.66088373408127,
      "semi_major_axis_km": 6753.154572624078,
      "eccentricity": 0.0001099,
      "inclination_deg": 53.0487,
      "raan_deg": 181.834,
      "arg_perigee_deg": 57.7012,
      "mean_anomaly_deg": 314.3675,
      "mean_motion_rev_day": 15.64381698
    },
    {
      "epoch": "2026-03-30T06:00:02.000160Z",
      "apogee_km": 375.76001443779296,
      "perigee_km": 374.2751308103643,
      "latitude_deg": 9.591274942411463,
      "longitude_deg": -88.55724867882445,
      "height_km": 374.6606949448541,
      "semi_major_axis_km": 6753.154572624078,
      "eccentricity": 0.00010994,
      "inclination_deg": 53.0487,
      "raan_deg": 181.834,
      "arg_perigee_deg": 57.7012,
      "mean_anomaly_deg": 314.3675,
      "mean_motion_rev_day": 15.64381698
    },
    {
      "epoch": "2026-03-30T14:00:03.000384Z",
      "apogee_km": 375.4461895631539,
      "perigee_km": 373.68211391427394,
      "latitude_deg": 53.199038877987356,
      "longitude_deg": -126.6009996312323,
      "height_km": 380.49272046244135,
      "semi_major_axis_km": 6752.701151738714,
      "eccentricity": 0.00013062,
      "inclination_deg": 53.0505,
      "raan_deg": 180.2011,
      "arg_perigee_deg": 42.7861,
      "mean_anomaly_deg": 47.9134,
      "mean_motion_rev_day": 15.64539265
    },
    {
      "epoch": "2026-03-30T22:00:00.999936Z",
      "apogee_km": 375.0544060984039,
      "perigee_km": 373.39454060102526,
      "latitude_deg": 8.621334084339374,
      "longitude_deg": -166.25232779066448,
      "height_km": 374.91727414230314,
      "semi_major_axis_km": 6752.361473349714,
      "eccentricity": 0.00012291,
      "inclination_deg": 53.048,
      "raan_deg": 178.5655,
      "arg_perigee_deg": 41.9687,
      "mean_anomaly_deg": 127.1752,
      "mean_motion_rev_day": 15.64657323
    },
    {
      "epoch": "2026-03-31T20:00:01.999008Z",
      "apogee_km": 374.62314594106283,
      "perigee_km": 372.83390157726626,
      "latitude_deg": -46.25036235844208,
      "longitude_deg": -6.534436184372668,
      "height_km": 389.6258676659893,
      "semi_major_axis_km": 6751.865523759164,
      "eccentricity": 0.0001325,
      "inclination_deg": 53.0481,
      "raan_deg": 174.0694,
      "arg_perigee_deg": 37.4083,
      "mean_anomaly_deg": 258.3077,
      "mean_motion_rev_day": 15.64829721
    },
    {
      "epoch": "2026-04-01T20:00:01.999008Z",
      "apogee_km": 374.3537763075774,
      "perigee_km": 372.1609234227408,
      "latitude_deg": 5.878492348659335,
      "longitude_deg": -145.4535565182713,
      "height_km": 374.38464856819604,
      "semi_major_axis_km": 6751.394349865159,
      "eccentricity": 0.0001624,
      "inclination_deg": 53.0481,
      "raan_deg": 169.1626,
      "arg_perigee_deg": 35.8212,
      "mean_anomaly_deg": 136.7476,
      "mean_motion_rev_day": 15.64993536
    },
    {
      "epoch": "2026-04-02T20:00:01.999008Z",
      "apogee_km": 373.8189803104351,
      "perigee_km": 371.40221267089146,
      "latitude_deg": 37.98160858921504,
      "longitude_deg": 68.8059198164683,
      "height_km": 374.59375613202906,
      "semi_major_axis_km": 6750.747596490663,
      "eccentricity": 0.000179,
      "inclination_deg": 53.0472,
      "raan_deg": 164.2545,
      "arg_perigee_deg": 35.4313,
      "mean_anomaly_deg": 14.7328,
      "mean_motion_rev_day": 15.65218442
    },
    {
      "epoch": "2026-04-02T22:00:01.999584Z",
      "apogee_km": 373.6558491175774,
      "perigee_km": 371.32998708559444,
      "latitude_deg": 15.850602234686274,
      "longitude_deg": 170.3155282825387,
      "height_km": 373.3558986112488,
      "semi_major_axis_km": 6750.629918101586,
      "eccentricity": 0.00017227,
      "inclination_deg": 53.0474,
      "raan_deg": 163.8447,
      "arg_perigee_deg": 36.0959,
      "mean_anomaly_deg": 123.9262,
      "mean_motion_rev_day": 15.6525937
    },
    {
      "epoch": "2026-04-03T15:42:28.013760Z",
      "apogee_km": 373.2181419738836,
      "perigee_km": 370.8069885491732,
      "latitude_deg": 3.334443701080754e-05,
      "longitude_deg": 92.61960440007164,
      "height_km": 371.997466040032,
      "semi_major_axis_km": 6750.149565261529,
      "eccentricity": 0.0001786,
      "inclination_deg": 53.0473,
      "raan_deg": 160.222,
      "arg_perigee_deg": 40.6465,
      "mean_anomaly_deg": 319.4683,
      "mean_motion_rev_day": 15.65426453
    },
    {
      "epoch": "2026-04-04T05:29:49.996896Z",
      "apogee_km": 372.9115633567053,
      "perigee_km": 370.2513643157372,
      "latitude_deg": 3.0516258375851574e-07,
      "longitude_deg": -117.60972912636443,
      "height_km": 371.4501308654932,
      "semi_major_axis_km": 6749.7184638362205,
      "eccentricity": 0.00019706,
      "inclination_deg": 53.0469,
      "raan_deg": 157.4006,
      "arg_perigee_deg": 39.1923,
      "mean_anomaly_deg": 320.9234,
      "mean_motion_rev_day": 15.6557643
    }
  ]
}